FENGYUN 1C DEB          
1 29873U 99025FT  17345.86793264 -.00000077  00000-0 -22473-4 0  9997
2 29873  99.3026  94.0027 0092361 199.9437 277.8180 13.95459928555233
